{"type": "FeatureCollection", "features": [ {"type": "Feature", "properties": {"norad_id": 33492, "name": "GOSAT (IBUKI)", "group": "resource", "lat": 9.063055753944274, "lon": 106.74323933928618, "alt_km": 670.6907210935506, "timestamp": "2025-12-25T14:48:24.458572+00:00", "meta": {"OBJECT_NAME": "GOSAT (IBUKI)", "OBJECT_ID": "2009-002A", "EPOCH": "2025-12-24T22:24:05.710752", "MEAN_MOTION": 14.67547953, "ECCENTRICITY": 0.00010269, "INCLINATION": 98.0771, "RA_OF_ASC_NODE": 107.3673, "ARG_OF_PERICENTER": 104.9727, "MEAN_ANOMALY": 255.1592, "EPHEMERIS_TYPE": 0, "CLASSIFICATION_TYPE": "U", "NORAD_CAT_ID": 33492, "ELEMENT_SET_NO": 999, "REV_AT_EPOCH": 90590, "BSTAR": 0.00016218085, "MEAN_MOTION_DOT": 8.72e-06, "MEAN_MOTION_DDOT": 0}, "tle": {"line1": "1 33492U 09002A   25358.93339943  .00000872  00000+0  16218-3 0  9995", "line2": "2 33492  98.0771 107.3673 0001026 104.9727 255.1592 14.67547953905904"}}, "geometry": {"type": "Point", "coordinates": [106.74323933928618, 9.063055753944274]}}, {"type": "Feature", "properties": {"norad_id": 35681, "name": "DEIMOS-1", "group": "resource", "lat": 68.69813926027331, "lon": 139.27465865191758, "alt_km": 636.869797907183, "timestamp": "2025-12-25T14:48:24.458581+00:00", "meta": {"OBJECT_NAME": "DEIMOS-1", "OBJECT_ID": "2009-041A", "EPOCH": "2025-12-25T06:20:58.631136", "MEAN_MOTION": 14.74969571, "ECCENTRICITY": 0.00024802, "INCLINATION": 97.7157, "RA_OF_ASC_NODE": 159.2854, "ARG_OF_PERICENTER": 60.1323, "MEAN_ANOMALY": 300.0133, "EPHEMERIS_TYPE": 0, "CLASSIFICATION_TYPE": "U", "NORAD_CAT_ID": 35681, "ELEMENT_SET_NO": 999, "REV_AT_EPOCH": 88124, "BSTAR": 6.8820495e-05, "MEAN_MOTION_DOT": 4.15e-06, "MEAN_MOTION_DDOT": 0}, "tle": {"line1": "1 35681U 09041A   25359.26456749  .00000415  00000+0  68820-4 0  9991", "line2": "2 35681  97.7157 159.2854 0002480  60.1323 300.0133 14.74969571881240"}}, "geometry": {"type": "Point", "coordinates": [139.27465865191758, 68.69813926027331]}}, {"type": "Feature", "properties": {"norad_id": 35682, "name": "DUBAISAT-1", "group": "resource", "lat": -10.414271907847104, "lon": 131.5849994179457, "alt_km": 649.5743254244935, "timestamp": "2025-12-25T14:48:24.458591+00:00", "meta": {"OBJECT_NAME": "DUBAISAT-1", "OBJECT_ID": "2009-041B", "EPOCH": "2025-12-25T06:42:42.658560", "MEAN_MOTION": 14.74637605, "ECCENTRICITY": 0.00092689, "INCLINATION": 97.9798, "RA_OF_ASC_NODE": 129.7754, "ARG_OF_PERICENTER": 269.3477, "MEAN_ANOMALY": 90.6669, "EPHEMERIS_TYPE": 0, "CLASSIFICATION_TYPE": "U", "NORAD_CAT_ID": 35682, "ELEMENT_SET_NO": 999, "REV_AT_EPOCH": 87946, "BSTAR": 0.00021140386, "MEAN_MOTION_DOT": 1.36e-05, "MEAN_MOTION_DDOT": 0}, "tle": {"line1": "1 35682U 09041B   25359.27966040  .00001360  00000+0  21140-3 0  9996", "line2": "2 35682  97.9798 129.7754 0009268 269.3477  90.6669 14.74637605879466"}}, "geometry": {"type": "Point", "coordinates": [131.5849994179457, -10.414271907847104]}}, {"type": "Feature", "properties": {"norad_id": 35931, "name": "OCEANSAT-2", "group": "resource", "lat": -63.74066754300056, "lon": 15.952064898565293, "alt_km": 899.4778725255328, "timestamp": "2025-12-25T14:48:24.458600+00:00", "meta": {"OBJECT_NAME": "OCEANSAT-2", "OBJECT_ID": "2009-051A", "EPOCH": "2025-12-25T06:32:15.176832", "MEAN_MOTION": 13.99622902, "ECCENTRICITY": 0.00158962, "INCLINATION": 98.2218, "RA_OF_ASC_NODE": 358.6012, "ARG_OF_PERICENTER": 12.0971, "MEAN_ANOMALY": 348.0575, "EPHEMERIS_TYPE": 0, "CLASSIFICATION_TYPE": "U", "NORAD_CAT_ID": 35931, "ELEMENT_SET_NO": 999, "REV_AT_EPOCH": 85500, "BSTAR": 1.1633208e-05, "MEAN_MOTION_DOT": -2e-07, "MEAN_MOTION_DDOT": 0}, "tle": {"line1": "1 35931U 09051A   25359.27239788 -.00000020  00000+0  11633-4 0  9996", "line2": "2 35931  98.2218 358.6012 0015896  12.0971 348.0575 13.99622902855000"}}, "geometry": {"type": "Point", "coordinates": [15.952064898565293, -63.74066754300056]}}, {"type": "Feature", "properties": {"norad_id": 35946, "name": "WORLDVIEW-2 (WV-2)", "group": "resource", "lat": 20.476073446414265, "lon": 67.33211211821863, "alt_km": 762.758700631226, "timestamp": "2025-12-25T14:48:24.458609+00:00", "meta": {"OBJECT_NAME": "WORLDVIEW-2 (WV-2)", "OBJECT_ID": "2009-055A", "EPOCH": "2025-12-25T04:41:21.336576", "MEAN_MOTION": 14.3772943, "ECCENTRICITY": 0.00047081, "INCLINATION": 98.4772, "RA_OF_ASC_NODE": 70.1089, "ARG_OF_PERICENTER": 39.8623, "MEAN_ANOMALY": 320.2909, "EPHEMERIS_TYPE": 0, "CLASSIFICATION_TYPE": "U", "NORAD_CAT_ID": 35946, "ELEMENT_SET_NO": 999, "REV_AT_EPOCH": 85064, "BSTAR": 7.3698502e-05, "MEAN_MOTION_DOT": 1.78e-06, "MEAN_MOTION_DDOT": 0}, "tle": {"line1": "1 35946U 09055A   25359.19538584  .00000178  00000+0  73699-4 0  9996", "line2": "2 35946  98.4772  70.1089 0004708  39.8623 320.2909 14.37729430850649"}}, "geometry": {"type": "Point", "coordinates": [67.33211211821863, 20.476073446414265]}}, {"type": "Feature", "properties": {"norad_id": 36036, "name": "SMOS", "group": "resource", "lat": 29.744990389253502, "lon": 9.340541545582315, "alt_km": 757.5176319315506, "timestamp": "2025-12-25T14:48:24.458618+00:00", "meta": {"OBJECT_NAME": "SMOS", "OBJECT_ID": "2009-059A", "EPOCH": "2025-12-25T02:26:16.778112", "MEAN_MOTION": 14.3975208, "ECCENTRICITY": 0.00010518, "INCLINATION": 98.4382, "RA_OF_ASC_NODE": 183.967, "ARG_OF_PERICENTER": 83.1567, "MEAN_ANOMALY": 276.9741, "EPHEMERIS_TYPE": 0, "CLASSIFICATION_TYPE": "U", "NORAD_CAT_ID": 36036, "ELEMENT_SET_NO": 999, "REV_AT_EPOCH": 84840, "BSTAR": 0.00014263233, "MEAN_MOTION_DOT": 4.03e-06, "MEAN_MOTION_DDOT": 0}, "tle": {"line1": "1 36036U 09059A   25359.10158308  .00000403  00000+0  14263-3 0  9996", "line2": "2 36036  98.4382 183.9670 0001051  83.1567 276.9741 14.39752080848404"}}, "geometry": {"type": "Point", "coordinates": [9.340541545582315, 29.744990389253502]}}, {"type": "Feature", "properties": {"norad_id": 36110, "name": "YAOGAN-7", "group": "resource", "lat": -65.34142452186587, "lon": -100.76495242472262, "alt_km": 634.425442678521, "timestamp": "2025-12-25T14:48:24.458628+00:00", "meta": {"OBJECT_NAME": "YAOGAN-7", "OBJECT_ID": "2009-069A", "EPOCH": "2025-12-25T06:58:56.573184", "MEAN_MOTION": 14.77750189, "ECCENTRICITY": 0.00234624, "INCLINATION": 98.0293, "RA_OF_ASC_NODE": 241.0027, "ARG_OF_PERICENTER": 238.5116, "MEAN_ANOMALY": 121.3802, "EPHEMERIS_TYPE": 0, "CLASSIFICATION_TYPE": "U", "NORAD_CAT_ID": 36110, "ELEMENT_SET_NO": 999, "REV_AT_EPOCH": 86394, "BSTAR": 9.9600039e-05, "MEAN_MOTION_DOT": 6.64e-06, "MEAN_MOTION_DDOT": 0}, "tle": {"line1": "1 36110U 09069A   25359.29093256  .00000664  00000+0  99600-4 0  9998", "line2": "2 36110  98.0293 241.0027 0023462 238.5116 121.3802 14.77750189863949"}}, "geometry": {"type": "Point", "coordinates": [-100.76495242472262, -65.34142452186587]}}, {"type": "Feature", "properties": {"norad_id": 36605, "name": "TANDEM-X", "group": "resource", "lat": -63.87224573759238, "lon": 20.272044859021253, "alt_km": 516.7463177441678, "timestamp": "2025-12-25T14:48:24.458637+00:00", "meta": {"OBJECT_NAME": "TANDEM-X", "OBJECT_ID": "2010-030A", "EPOCH": "2025-12-24T13:47:55.228992", "MEAN_MOTION": 15.19151393, "ECCENTRICITY": 0.00017737, "INCLINATION": 97.4454, "RA_OF_ASC_NODE": 3.7821, "ARG_OF_PERICENTER": 94.5594, "MEAN_ANOMALY": 265.5843, "EPHEMERIS_TYPE": 0, "CLASSIFICATION_TYPE": "U", "NORAD_CAT_ID": 36605, "ELEMENT_SET_NO": 999, "REV_AT_EPOCH": 86013, "BSTAR": 4.5827e-05, "MEAN_MOTION_DOT": 8.95e-06, "MEAN_MOTION_DDOT": 0}, "tle": {"line1": "1 36605U 10030A   25358.57494478  .00000895  00000+0  45827-4 0  9996", "line2": "2 36605  97.4454   3.7821 0001773  94.5594 265.5843 15.19151393860139"}}, "geometry": {"type": "Point", "coordinates": [20.272044859021253, -63.87224573759238]}}, {"type": "Feature", "properties": {"norad_id": 36795, "name": "CARTOSAT-2B", "group": "resource", "lat": -81.33902768338773, "lon": 164.34194907429935, "alt_km": 646.5633048101854, "timestamp": "2025-12-25T14:48:24.458646+00:00", "meta": {"OBJECT_NAME": "CARTOSAT-2B", "OBJECT_ID": "2010-035A", "EPOCH": "2025-12-25T07:06:37.799712", "MEAN_MOTION": 14.78742942, "ECCENTRICITY": 0.00125583, "INCLINATION": 97.7831, "RA_OF_ASC_NODE": 47.9171, "ARG_OF_PERICENTER": 39.4538, "MEAN_ANOMALY": 320.7585, "EPHEMERIS_TYPE": 0, "CLASSIFICATION_TYPE": "U", "NORAD_CAT_ID": 36795, "ELEMENT_SET_NO": 999, "REV_AT_EPOCH": 83415, "BSTAR": 0.0001324996, "MEAN_MOTION_DOT": 9.24e-06, "MEAN_MOTION_DDOT": 0}, "tle": {"line1": "1 36795U 10035A   25359.29627083  .00000924  00000+0  13250-3 0  9998", "line2": "2 36795  97.7831  47.9171 0012558  39.4538 320.7585 14.78742942834158"}}, "geometry": {"type": "Point", "coordinates": [164.34194907429935, -81.33902768338773]}}, {"type": "Feature", "properties": {"norad_id": 36834, "name": "YAOGAN-10", "group": "resource", "lat": -76.9935728908612, "lon": 162.31550825281892, "alt_km": 622.9921514233693, "timestamp": "2025-12-25T14:48:24.458655+00:00", "meta": {"OBJECT_NAME": "YAOGAN-10", "OBJECT_ID": "2010-038A", "EPOCH": "2025-12-25T07:45:22.606848", "MEAN_MOTION": 14.84657289, "ECCENTRICITY": 0.00014301, "INCLINATION": 97.9133, "RA_OF_ASC_NODE": 19.0491, "ARG_OF_PERICENTER": 80.0606, "MEAN_ANOMALY": 50.3835, "EPHEMERIS_TYPE": 0, "CLASSIFICATION_TYPE": "U", "NORAD_CAT_ID": 36834, "ELEMENT_SET_NO": 999, "REV_AT_EPOCH": 83140, "BSTAR": 0.00036503325, "MEAN_MOTION_DOT": 3.034e-05, "MEAN_MOTION_DDOT": 0}, "tle": {"line1": "1 36834U 10038A   25359.32317832  .00003034  00000+0  36503-3 0  9998", "line2": "2 36834  97.9133  19.0491 0001430  80.0606  50.3835 14.84657289831404"}}, "geometry": {"type": "Point", "coordinates": [162.31550825281892, -76.9935728908612]}}]}